STARLINK-5284           
1 55297U 23010AE  23303.50513208 -.00000994  00000+0 -75552-4 0  9990
2 55297  70.0019  35.7469 0002565 254.6595 105.4281 14.98310237 43966
STARLINK-5272           
1 55298U 23010AF  23303.22555999  .00000579  00000+0  56308-4 0  9998
2 55298  70.0009  36.3732 0003091 263.6157  96.4650 14.98317764 43922
STARLINK-5270           
1 55299U 23010AG  23303.43018817 -.00000577  00000+0 -40631-4 0  9997
2 55299  70.0019  35.8874 0002540 260.8068  99.2803 14.98312117 43954
STARLINK-5308           
1 55300U 23010AH  23303.42166811  .00000791  00000+0  74061-4 0  9997
2 55300  70.0004  35.8551 0002884 266.2591  93.8238 14.98317608 43957
STARLINK-5321           
1 55302U 23010AK  23303.50097175 -.00000057  00000+0  30440-5 0  9994
2 55302  70.0006  35.7280 0002887 254.9217 105.1622 14.98286144 43966
STARLINK-5322           
1 55303U 23010AL  23303.50535582 -.00000557  00000+0 -38942-4 0  9994
2 55303  70.0006  55.6126 0002825 268.9337  91.1498 14.98314111 43485
STARLINK-5318           
1 55304U 23010AM  23303.21721370  .00000477  00000+0  47812-4 0  9990
2 55304  70.0005  36.3449 0003397 271.5769  88.5001 14.98317765 43920
STARLINK-5316           
1 55305U 23010AN  23303.21306609  .00000250  00000+0  28786-4 0  9993
2 55305  70.0002  36.7375 0003020 263.3071  96.7744 14.98318598 43917
STARLINK-5295           
1 55306U 23010AP  23303.51743293 -.00000525  00000+0 -36267-4 0  9991
2 55306  70.0012  15.9133 0002874 264.8284  95.2547 14.98308802 44450
STARLINK-5288           
1 55307U 23010AQ  23303.52159918  .00000286  00000+0  31757-4 0  9999
2 55307  70.0012  15.9298 0002669 257.7230 102.3630 14.98321032 44450
STARLINK-5292           
1 55308U 23010AR  23303.16710178 -.00000503  00000+0 -34388-4 0  9998
2 55308  70.0019  16.6988 0003880 287.0084  73.0650 14.98307155 44402
STARLINK-5315           
1 55309U 23010AS  23303.51759407 -.00000138  00000+0 -37797-5 0  9998
2 55309  70.0019  15.9173 0002696 263.2737  96.8115 14.98313968 44460
STARLINK-5309           
1 55310U 23010AT  23303.17527599  .00000087  00000+0  15114-4 0  9996
2 55310  70.0004  16.7241 0003294 271.3890  88.6892 14.98316180 44400
STARLINK-5312           
1 55311U 23010AU  23302.91246885 -.00018190  00000+0 -15229-2 0  9995
2 55311  70.0016  17.4132 0002864 265.6274  94.4558 14.98272976 45550
STARLINK-5296           
1 55312U 23010AV  23303.48400456  .00003434  00000+0  29539-3 0  9998
2 55312  70.0009  15.6817 0002912 267.6730  92.4095 14.98341375 44458
STARLINK-5313           
1 55313U 23010AW  23303.16692784  .00000627  00000+0  60369-4 0  9999
2 55313  70.0010  16.6955 0003102 267.6975  92.3829 14.98316145 44404
STARLINK-5305           
1 55314U 23010AX  23303.17110699 -.00000055  00000+0  31761-5 0  9992
2 55314  70.0005  16.7089 0003085 266.2686  93.8120 14.98308475 44409
STARLINK-4623           
1 55315U 23010AY  23303.51765200 -.00000673  00000+0 -48678-4 0  9996
2 55315  70.0017  35.7927 0002503 260.4251  99.6625 14.98316900 43970
STARLINK-5257           
1 55316U 23010AZ  23303.47562162  .00009964  00000+0  84039-3 0  9994
2 55316  70.0009  15.7812 0003190 265.1150  94.9645 14.98390275 44468
STARLINK-5265           
1 55317U 23010BA  23303.16275252  .00001046  00000+0  95492-4 0  9991
2 55317  70.0003  16.7068 0002628 265.8610  94.2249 14.98320182 44418
STARLINK-5180           
1 55318U 23010BB  23303.22534017  .00000429  00000+0  43740-4 0  9999
2 55318  70.0012  16.4974 0002583 270.0819  90.0044 14.98318183 44416
STARLINK-5196           
1 55319U 23010BC  23303.22116015  .00001764  00000+0  15564-3 0  9999
2 55319  70.0015  16.4808 0002545 265.3034  94.7834 14.98320870 44414
STARLINK-5492           
1 55331U 23013A   23302.73088013  .00006048  00000+0  46241-3 0  9993
2 55331  43.0041 304.3895 0000976 273.6612  86.4119 15.02537299 43124
STARLINK-5491           
1 55332U 23013B   23303.17650112  .00007453  00000+0  56606-3 0  9995
2 55332  43.0035 288.6913 0001096 279.8368  80.2350 15.02543334 42690
STARLINK-5493           
1 55333U 23013C   23302.99124045  .00003835  00000+0  29873-3 0  9992
2 55333  43.0035 302.9022 0000740 266.6361  93.4397 15.02541392 42514
STARLINK-5652           
1 55334U 23013D   23302.70075497  .00001363  00000+0  11833-3 0  9999
2 55334  43.0037 301.5428 0001214 264.9526  95.1178 15.01724275 42072
STARLINK-5660           
1 55335U 23013E   23302.72200385  .00000488  00000+0  51183-4 0  9998
2 55335  42.9998 304.3247 0000320 307.5241  52.5572 15.02531594 42045
STARLINK-5655           
1 55336U 23013F   23303.03577070  .00224798  00000+0  16229-1 0  9993
2 55336  43.0027 289.2789 0001311 275.3788  84.6905 15.02301041 42679
STARLINK-5667           
1 55337U 23013G   23303.36704771  .00001947  00000+0  15912-3 0  9999
2 55337  43.0034 287.5020 0001150 264.5105  95.5606 15.02541433 42727
STARLINK-5658           
1 55338U 23013H   23303.18512202  .00009250  00000+0  69866-3 0  9998
2 55338  43.0036 301.7763 0001139 266.3629  93.7083 15.02549013 42542
STARLINK-5671           
1 55339U 23013J   23302.71422743  .00005433  00000+0  41681-3 0  9991
2 55339  43.0032 304.2644 0000958 266.8805  93.1928 15.02545669 42044
STARLINK-5675           
1 55340U 23013K   23303.44326285  .00012093  00000+0  90831-3 0  9999
2 55340  43.0032 300.2737 0001129 268.2796  91.7917 15.02553190 42580
STARLINK-5670           
1 55341U 23013L   23302.71644744 -.00001554  00000+0 -10001-3 0  9995
2 55341  43.0020 304.2819 0001175 273.0814  86.9894 15.02537676 42041
STARLINK-5657           
1 55342U 23013M   23303.17624596  .00004901  00000+0  37756-3 0  9993
2 55342  43.0030 301.7098 0001006 257.5484 102.5246 15.02539957 42542
STARLINK-5661           
1 55343U 23013N   23302.70534412  .00002337  00000+0  18796-3 0  9993
2 55343  43.0027 304.1953 0001644 269.4143  90.6511 15.02545551 42042
STARLINK-5662           
1 55344U 23013P   23303.30586723  .00001232  00000+0  10626-3 0  9990
2 55344  43.0044 300.9645 0001026 265.9833  94.0892 15.02535993 42561
STARLINK-5653           
1 55345U 23013Q   23302.70782835  .00003089  00000+0  24365-3 0  9993
2 55345  43.0042 291.1834 0000806 275.5553  84.5198 15.02534950 42196
STARLINK-5631           
1 55346U 23013R   23302.70201928  .00003272  00000+0  25714-3 0  9996
2 55346  43.0028 304.1699 0001539 265.4587  94.6079 15.02538652 42041
STARLINK-5663           
1 55347U 23013S   23303.08978893  .00001325  00000+0  11312-3 0  9997
2 55347  43.0020 301.9195 0000758 243.0816 116.9949 15.02535576 42539
STARLINK-5609           
1 55348U 23013T   23303.43105657  .00000163  00000+0  27156-4 0  9990
2 55348  43.0045 300.1814 0001048 271.2963  88.7760 15.02533583 42583
STARLINK-5666           
1 55349U 23013U   23302.69646801  .00003483  00000+0  27273-3 0  9996
2 55349  43.0028 304.1298 0001386 270.4075  89.6608 15.02539023 42042
STARLINK-5668           
1 55350U 23013V   23303.09200904  .00000759  00000+0  71274-4 0  9997
2 55350  43.0030 301.9372 0000932 256.1597 103.9142 15.02533404 42535
STARLINK-5659           
1 55351U 23013W   23303.14738940 -.00000236  00000+0 -23899-5 0  9993
2 55351  43.0028 301.4939 0000965 252.1531 107.9207 15.02529072 42540
STARLINK-5547           
1 55352U 23013X   23303.01998367  .00000342  00000+0  40404-4 0  9997
2 55352  43.0043 302.2572 0000918 273.9894  86.0844 15.02527400 42526
STARLINK-5608           
1 55353U 23013Y   23302.73408880  .00005164  00000+0  39696-3 0  9999
2 55353  43.0027 303.5519 0000551 261.8112  98.2668 15.02545664 42055
STARLINK-5649           
1 55354U 23013Z   23303.08424432 -.00000258  00000+0 -40678-5 0  9995
2 55354  43.0051 301.8766 0001016 260.8839  99.1889 15.02525749 42530
STARLINK-5647           
1 55355U 23013AA  23303.14405589  .00003797  00000+0  29596-3 0  9998
2 55355  43.0034 301.4469 0000979 260.7960  99.2772 15.02536834 42549
STARLINK-5651           
1 55357U 23013AC  23303.14183568  .00005170  00000+0  39743-3 0  9992
2 55357  43.0025 301.4506 0001015 276.6863  83.3864 15.02542323 42549
STARLINK-5622           
1 55358U 23013AD  23303.14516894  .00003569  00000+0  27916-3 0  9994
2 55358  43.0034 301.4758 0000876 265.5887  94.4855 15.02536014 42549
STARLINK-5641           
1 55359U 23013AE  23302.73963953  .00000378  00000+0  43073-4 0  9999
2 55359  43.0040 303.5913 0000939 267.6538  92.4197 15.02535186 42051
STARLINK-5664           
1 55360U 23013AF  23303.05512059  .00004079  00000+0  31678-3 0  9993
2 55360  43.0002 314.6512 0000364 313.3637  46.7175 15.02539935 42380
STARLINK-5665           
1 55361U 23013AG  23303.35817471  .00007786  00000+0  59060-3 0  9996
2 55361  43.0028 287.4801 0001120 271.5714  88.5000 15.02547388 42729
STARLINK-5574           
1 55362U 23013AH  23303.02912018  .00000550  00000+0  55778-4 0  9999
2 55362  43.0037 289.3110 0000717 264.7954  95.2806 15.02528378 42676
STARLINK-5648           
1 55363U 23013AJ  23302.76934850  .00003152  00000+0  24829-3 0  9991
2 55363  43.0035 316.8083 0001158 270.8471  89.2239 15.02540161 41904
STARLINK-5627           
1 55364U 23013AK  23302.73742019  .00000063  00000+0  19763-4 0  9993
2 55364  43.0034 303.5755 0001008 261.1005  98.9723 15.02532422 42056
STARLINK-5639           
1 55365U 23013AL  23303.09507904  .00000793  00000+0  73743-4 0  9994
2 55365  43.0023 314.9515 0001029 272.2444  87.8280 15.02532810 42380
STARLINK-5654           
1 55366U 23013AM  23303.03134112  .00000576  00000+0  57700-4 0  9990
2 55366  43.0042 289.3281 0001154 273.3135  86.7575 15.02527340 42674
STARLINK-5635           
1 55367U 23013AN  23303.35262725  .00002023  00000+0  16477-3 0  9992
2 55367  43.0031 287.4363 0000796 262.2287  97.8465 15.02539720 42721
STARLINK-5625           
1 55368U 23013AP  23303.08893604  .00002902  00000+0  22983-3 0  9994
2 55368  43.0025 288.8999 0001109 271.4300  88.6416 15.02536498 42680
